BEIJING 1               
1 28890U 05043A   23186.43144542  .00000334  00000+0  76167-4 0  9996
2 28890  98.1617 307.8183 0016161  57.9860 302.2909 14.61833518943080
HJ-1A                   
1 33320U 08041A   23186.37516610  .00000721  00000+0  10497-3 0  9996
2 33320  97.6433 205.7950 0022257  67.5447 292.8119 14.78503961798958
HJ-1B                   
1 33321U 08041B   23186.36128786  .00001457  00000+0  20117-3 0  9996
2 33321  97.6453 210.1180 0040752 110.9701 249.5879 14.79008931798941
YAOGAN 4                
1 33446U 08061A   23186.35509176  .00001160  00000+0  16608-3 0  9992
2 33446  97.8520 120.8666 0015197 339.4744  20.5854 14.78374041786148
DEIMOS-1                
1 35681U 09041A   23186.37310357  .00000480  00000+0  82673-4 0  9997
2 35681  97.6840  22.1356 0002893  80.4843 279.6692 14.72570181748115
UK-DMC 2                
1 35683U 09041C   23186.40197285  .00000728  00000+0  12286-3 0  9993
2 35683  97.7353 344.6971 0001734  97.5863 262.5542 14.72194878747823
RISAT 1                 
1 38248U 12017A   23186.13402931  .00005571  00000+0  28929-3 0  9999
2 38248  97.5397 199.0666 0004415  43.3080 316.8499 15.16511951616734
DMC3-FM1                
1 40715U 15032A   23186.39261869  .00000644  00000+0  86107-4 0  9991
2 40715  97.7981  69.7074 0005897   5.1567 354.9706 14.82784155430024
DMC3-FM2                
1 40716U 15032B   23186.41453793  .00000636  00000+0  85043-4 0  9993
2 40716  97.8028  70.5829 0007776   4.4283 355.6998 14.82798957430027
DMC3-FM3                
1 40717U 15032C   23186.37073923  .00000623  00000+0  83525-4 0  9991
2 40717  97.8069  71.6239 0009300   0.3972 359.7248 14.82773429430025
